KUIPER-00186            
1 67140U 25301H   26025.58334491  .00082399  00000+0  28285-2 0  9998
2 67140  51.8707 273.8951 0007084 235.8934  97.6084 15.29397195  5837
KUIPER-00187            
1 67141U 25301J   26025.58334491 -.01100496  00000+0 -60493-1 0  9997
2 67141  51.8802 274.4740 0007770 242.9540 117.1638 15.16339515  5607
KUIPER-00188            
1 67142U 25301K   26025.37880163  .00055214  00000+0  15368-2 0  9993
2 67142  51.8707 274.7112 0007120 234.9147 125.1172 15.36259345  7070
KUIPER-00191            
1 67143U 25301L   26024.72264024  .00041403  00000+0  11479-2 0  9998
2 67143  51.8666 277.8098 0006584 228.8598 131.1821 15.36514916  7006
KUIPER-00196            
1 67144U 25301M   26024.70338181  .00061839  00000+0  16750-2 0  9995
2 67144  51.8698 277.6974 0003494 196.8788 163.2083 15.37071104  6974
KUIPER-00204            
1 67145U 25301N   26024.89706169  .00035822  00000+0  14313-2 0  9997
2 67145  51.8851 278.1567 0004542 164.4187 195.6935 15.24784117  7099
KUIPER-00210            
1 67146U 25301P   26024.68384286  .00048654  00000+0  13892-2 0  9995
2 67146  51.8599 278.2675 0012689 257.6708 102.2858 15.35466514  7138
KUIPER-00221            
1 67147U 25301Q   26025.58334491 -.01055639  00000+0 -55371-1 0  9990
2 67147  51.8841 274.3708 0005770 202.5823 272.6806 15.18335864  5657
